[{"OBJECT_NAME":"STARLINK-5655","OBJECT_ID":"2023-013F","EPOCH":"2026-03-09T22:00:01.999584","MEAN_MOTION":15.1070309,"ECCENTRICITY":0.00020485,"INCLINATION":43.0004,"RA_OF_ASC_NODE":286.0516,"ARG_OF_PERICENTER":263.9132,"MEAN_ANOMALY":71.8699,"EPHEMERIS_TYPE":0,"CLASSIFICATION_TYPE":"U","NORAD_CAT_ID":55336,"ELEMENT_SET_NO":999,"REV_AT_EPOCH":567,"BSTAR":0.0029195966,"MEAN_MOTION_DOT":0.00049331,"MEAN_MOTION_DDOT":0},{"OBJECT_NAME":"CZ-2C R\/B","OBJECT_ID":"2026-009B","EPOCH":"2026-03-09T17:37:38.663328","MEAN_MOTION":15.03346126,"ECCENTRICITY":0.00989033,"INCLINATION":97.1689,"RA_OF_ASC_NODE":139.2821,"ARG_OF_PERICENTER":40.6367,"MEAN_ANOMALY":320.2186,"EPHEMERIS_TYPE":0,"CLASSIFICATION_TYPE":"U","NORAD_CAT_ID":67475,"ELEMENT_SET_NO":999,"REV_AT_EPOCH":808,"BSTAR":0.00028478769,"MEAN_MOTION_DOT":4.245e-5,"MEAN_MOTION_DDOT":0}]
